IRIDIUM 150             
1 43257U 18030J   24052.71647393  .00000013  00000+0 -25514-5 0  9992
2 43257  86.3936 284.2243 0001911  96.9153 263.2260 14.34217616308858
IRIDIUM 143             
1 43258U 18030K   24052.62767634  .00000391  00000+0  13255-3 0  9999
2 43258  86.3944 284.3209 0002345  95.0829 265.0634 14.34216289308752
IRIDIUM 161             
1 43478U 18047C   24052.57013352  .00000432  00000+0  12228-3 0  9991
2 43478  86.4435  82.3119 0002223  91.3393 268.8062 14.43289681303025
IRIDIUM 152             
1 43479U 18047D   24052.60039211  .00000207  00000+0  66898-4 0  9991
2 43479  86.3907  82.1584 0002334  93.3710 266.7753 14.34216049301144
IRIDIUM 147             
1 43480U 18047E   24052.60673307  .00000362  00000+0  12231-3 0  9996
2 43480  86.3910  82.1459 0002066  90.4820 269.6612 14.34215940301148
IRIDIUM 110             
1 43481U 18047F   24052.61307525  .00000306  00000+0  10203-3 0  9999
2 43481  86.3912  82.2132 0001785  91.1514 268.9886 14.34215373301139
IRIDIUM 162             
1 43482U 18047G   24052.56378896  .00000409  00000+0  11552-3 0  9995
2 43482  86.4433  82.2159 0002215  91.9207 268.2247 14.43293136303010
IRIDIUM 160             
1 43569U 18061A   24052.48914958  .00000057  00000+0  13254-4 0  9994
2 43569  86.3936  50.6091 0002368  79.2518 280.8945 14.34217456292013
